COSMOS 1933             
1 18958U 88020A   25353.94204603  .00003510  00000+0  17527-3 0  9998
2 18958  82.5134 329.7616 0006211 109.1248 251.0658 15.17165177 38138
SL-3 R/B                
1 19046U 88032B   25353.91116689  .00003485  00000+0  16924-3 0  9994
2 19046  97.5082 332.5821 0027472 148.4306 211.8584 15.18808088 39991
SL-16 R/B               
1 19120U 88039B   25353.93428480  .00000184  00000+0  10979-3 0  9998
2 19120  71.0135 237.1865 0019598 103.9604 256.3702 14.19597959947069
COSMOS 1953             
1 19210U 88050A   25351.75027580  .00004793  00000+0  17925-3 0  9993
2 19210  82.5093 240.5536 0013540  56.0210 304.2313 15.26995692 25270
SL-8 R/B                
1 19257U 88053B   25353.91230618  .00000183  00000+0  67907-4 0  9990
2 19257  74.0474 259.5008 0018966 100.8982 331.6252 14.38863237965129
COSMOS 1975             
1 19573U 88093A   25353.53258481  .00005452  00000+0  20679-3 0  9999
2 19573  82.5191 198.0279 0013055  91.4150 268.8584 15.26564020  7170
SL-14 R/B               
1 19574U 88093B   25353.85807832  .00000392  00000+0  42428-4 0  9990
2 19574  82.5312 116.9873 0019459 304.6620 172.6319 14.85556222989187
SL-16 R/B               
1 19650U 88102B   25353.94583901  .00000267  00000+0  15877-3 0  9992
2 19650  71.0002 319.2804 0012663 139.5184 220.6883 14.16139342915603
INTERCOSMOS 24          
1 20261U 89080A   25353.89441085  .00000539  00000+0  14966-3 0  9998
2 20261  82.6050 156.3012 1188960 117.9300 254.7259 12.59451339656751
SL-14 R/B               
1 20262U 89080C   25353.62476845  .00000296  00000+0  84663-4 0  9994
2 20262  82.5921 224.6012 1230547   7.8560 353.9979 12.50418889650143
DELTA 1 R/B             
1 20323U 89089B   25353.46871312  .00000240  00000+0  68088-4 0  9993
2 20323  97.0747 208.6396 0069618  17.2798 343.0747 14.50577176884106
ARIANE 40 R/B           
1 20443U 90005H   25353.13270722  .00000228  00000+0  86115-4 0  9995
2 20443  98.3236  51.1299 0011287  88.5056 271.7425 14.39803228881212
